KUIPER-00133            
1 65764U 25217C   25330.16670139 -.00046231  00000+0 -48397-2 0  9991
2 65764  51.8947 151.0816 0010382 332.9613 170.9619 14.89229572  5835
KUIPER-00139            
1 65765U 25217D   25330.16670139 -.00434204  00000+0 -28942-1 0  9996
2 65765  51.8828 147.8795 0007571 321.2154 292.2281 15.08792768  4128
KUIPER-00142            
1 65766U 25217E   25329.76124926  .00053643  00000+0  14266-2 0  9996
2 65766  51.8684 146.4442 0003140 295.1590  64.9070 15.37704301  9431
KUIPER-00145            
1 65767U 25217F   25330.16670139 -.01074469  00000+0 -36517-1 0  9999
2 65767  51.8713 144.7219 0005251 289.1556  32.0989 15.32705607  5625
KUIPER-00147            
1 65768U 25217G   25330.16670139 -.01411278  00000+0 -62605-1 0  9990
2 65768  51.8705 145.4200 0008449 312.5560   2.2598 15.24377427  3408
KUIPER-00148            
1 65769U 25217H   25330.16670139 -.00844638  00000+0 -33902-1 0  9998
2 65769  51.8638 145.6316 0008176 333.3481 260.9751 15.27112217  5889
KUIPER-00150            
1 65770U 25217J   25330.16670139 -.00992505  00000+0 -87741-1 0  9997
2 65770  51.8841 149.2828 0008676 318.9686 216.4728 14.98689882  3923
KUIPER-00151            
1 65771U 25217K   25330.16670139 -.01049842  00000+0 -51169-1 0  9991
2 65771  51.8739 145.7865 0003755 286.6807 263.7923 15.20847641  5021
