<?xml version="1.0" encoding="UTF-8"?>
<ndm xmlns:xsi="http://www.w3.org/2001/XMLSchema-instance" xsi:noNamespaceSchemaLocation="https://sanaregistry.org/r/ndmxml_unqualified/ndmxml-2.0.0-master-2.0.xsd">
<omm id="CCSDS_OMM_VERS" version="2.0">
<header><CREATION_DATE/><ORIGINATOR/></header><body><segment><metadata><OBJECT_NAME>KUIPER-00133</OBJECT_NAME><OBJECT_ID>2025-217C</OBJECT_ID><CENTER_NAME>EARTH</CENTER_NAME><REF_FRAME>TEME</REF_FRAME><TIME_SYSTEM>UTC</TIME_SYSTEM><MEAN_ELEMENT_THEORY>SGP4</MEAN_ELEMENT_THEORY></metadata><data><meanElements><EPOCH>2025-11-26T04:00:03.000096</EPOCH><MEAN_MOTION>14.89229572</MEAN_MOTION><ECCENTRICITY>.0010382</ECCENTRICITY><INCLINATION>51.8947</INCLINATION><RA_OF_ASC_NODE>151.0816</RA_OF_ASC_NODE><ARG_OF_PERICENTER>332.9613</ARG_OF_PERICENTER><MEAN_ANOMALY>170.9619</MEAN_ANOMALY></meanElements><tleParameters><EPHEMERIS_TYPE>0</EPHEMERIS_TYPE><CLASSIFICATION_TYPE>U</CLASSIFICATION_TYPE><NORAD_CAT_ID>65764</NORAD_CAT_ID><ELEMENT_SET_NO>999</ELEMENT_SET_NO><REV_AT_EPOCH>583</REV_AT_EPOCH><BSTAR>-.48397E-2</BSTAR><MEAN_MOTION_DOT>-.46231E-3</MEAN_MOTION_DOT><MEAN_MOTION_DDOT>0</MEAN_MOTION_DDOT></tleParameters></data></segment></body></omm>
<omm id="CCSDS_OMM_VERS" version="2.0">
<header><CREATION_DATE/><ORIGINATOR/></header><body><segment><metadata><OBJECT_NAME>KUIPER-00139</OBJECT_NAME><OBJECT_ID>2025-217D</OBJECT_ID><CENTER_NAME>EARTH</CENTER_NAME><REF_FRAME>TEME</REF_FRAME><TIME_SYSTEM>UTC</TIME_SYSTEM><MEAN_ELEMENT_THEORY>SGP4</MEAN_ELEMENT_THEORY></metadata><data><meanElements><EPOCH>2025-11-26T04:00:03.000096</EPOCH><MEAN_MOTION>15.08792768</MEAN_MOTION><ECCENTRICITY>.0007571</ECCENTRICITY><INCLINATION>51.8828</INCLINATION><RA_OF_ASC_NODE>147.8795</RA_OF_ASC_NODE><ARG_OF_PERICENTER>321.2154</ARG_OF_PERICENTER><MEAN_ANOMALY>292.2281</MEAN_ANOMALY></meanElements><tleParameters><EPHEMERIS_TYPE>0</EPHEMERIS_TYPE><CLASSIFICATION_TYPE>U</CLASSIFICATION_TYPE><NORAD_CAT_ID>65765</NORAD_CAT_ID><ELEMENT_SET_NO>999</ELEMENT_SET_NO><REV_AT_EPOCH>412</REV_AT_EPOCH><BSTAR>-.28942E-1</BSTAR><MEAN_MOTION_DOT>-.434204E-2</MEAN_MOTION_DOT><MEAN_MOTION_DDOT>0</MEAN_MOTION_DDOT></tleParameters></data></segment></body></omm>
<omm id="CCSDS_OMM_VERS" version="2.0">
<header><CREATION_DATE/><ORIGINATOR/></header><body><segment><metadata><OBJECT_NAME>KUIPER-00142</OBJECT_NAME><OBJECT_ID>2025-217E</OBJECT_ID><CENTER_NAME>EARTH</CENTER_NAME><REF_FRAME>TEME</REF_FRAME><TIME_SYSTEM>UTC</TIME_SYSTEM><MEAN_ELEMENT_THEORY>SGP4</MEAN_ELEMENT_THEORY></metadata><data><meanElements><EPOCH>2025-11-25T18:16:11.936064</EPOCH><MEAN_MOTION>15.37704301</MEAN_MOTION><ECCENTRICITY>.000314</ECCENTRICITY><INCLINATION>51.8684</INCLINATION><RA_OF_ASC_NODE>146.4442</RA_OF_ASC_NODE><ARG_OF_PERICENTER>295.1590</ARG_OF_PERICENTER><MEAN_ANOMALY>64.9070</MEAN_ANOMALY></meanElements><tleParameters><EPHEMERIS_TYPE>0</EPHEMERIS_TYPE><CLASSIFICATION_TYPE>U</CLASSIFICATION_TYPE><NORAD_CAT_ID>65766</NORAD_CAT_ID><ELEMENT_SET_NO>999</ELEMENT_SET_NO><REV_AT_EPOCH>943</REV_AT_EPOCH><BSTAR>.14266E-2</BSTAR><MEAN_MOTION_DOT>.53643E-3</MEAN_MOTION_DOT><MEAN_MOTION_DDOT>0</MEAN_MOTION_DDOT></tleParameters></data></segment></body></omm>
<omm id="CCSDS_OMM_VERS" version="2.0">
<header><CREATION_DATE/><ORIGINATOR/></header><body><segment><metadata><OBJECT_NAME>KUIPER-00145</OBJECT_NAME><OBJECT_ID>2025-217F</OBJECT_ID><CENTER_NAME>EARTH</CENTER_NAME><REF_FRAME>TEME</REF_FRAME><TIME_SYSTEM>UTC</TIME_SYSTEM><MEAN_ELEMENT_THEORY>SGP4</MEAN_ELEMENT_THEORY></metadata><data><meanElements><EPOCH>2025-11-26T04:00:03.000096</EPOCH><MEAN_MOTION>15.32705607</MEAN_MOTION><ECCENTRICITY>.0005251</ECCENTRICITY><INCLINATION>51.8713</INCLINATION><RA_OF_ASC_NODE>144.7219</RA_OF_ASC_NODE><ARG_OF_PERICENTER>289.1556</ARG_OF_PERICENTER><MEAN_ANOMALY>32.0989</MEAN_ANOMALY></meanElements><tleParameters><EPHEMERIS_TYPE>0</EPHEMERIS_TYPE><CLASSIFICATION_TYPE>U</CLASSIFICATION_TYPE><NORAD_CAT_ID>65767</NORAD_CAT_ID><ELEMENT_SET_NO>999</ELEMENT_SET_NO><REV_AT_EPOCH>562</REV_AT_EPOCH><BSTAR>-.36517E-1</BSTAR><MEAN_MOTION_DOT>-.1074469E-1</MEAN_MOTION_DOT><MEAN_MOTION_DDOT>0</MEAN_MOTION_DDOT></tleParameters></data></segment></body></omm>
<omm id="CCSDS_OMM_VERS" version="2.0">
<header><CREATION_DATE/><ORIGINATOR/></header><body><segment><metadata><OBJECT_NAME>KUIPER-00147</OBJECT_NAME><OBJECT_ID>2025-217G</OBJECT_ID><CENTER_NAME>EARTH</CENTER_NAME><REF_FRAME>TEME</REF_FRAME><TIME_SYSTEM>UTC</TIME_SYSTEM><MEAN_ELEMENT_THEORY>SGP4</MEAN_ELEMENT_THEORY></metadata><data><meanElements><EPOCH>2025-11-26T04:00:03.000096</EPOCH><MEAN_MOTION>15.24377427</MEAN_MOTION><ECCENTRICITY>.0008449</ECCENTRICITY><INCLINATION>51.8705</INCLINATION><RA_OF_ASC_NODE>145.4200</RA_OF_ASC_NODE><ARG_OF_PERICENTER>312.5560</ARG_OF_PERICENTER><MEAN_ANOMALY>2.2598</MEAN_ANOMALY></meanElements><tleParameters><EPHEMERIS_TYPE>0</EPHEMERIS_TYPE><CLASSIFICATION_TYPE>U</CLASSIFICATION_TYPE><NORAD_CAT_ID>65768</NORAD_CAT_ID><ELEMENT_SET_NO>999</ELEMENT_SET_NO><REV_AT_EPOCH>340</REV_AT_EPOCH><BSTAR>-.62605E-1</BSTAR><MEAN_MOTION_DOT>-.1411278E-1</MEAN_MOTION_DOT><MEAN_MOTION_DDOT>0</MEAN_MOTION_DDOT></tleParameters></data></segment></body></omm>
<omm id="CCSDS_OMM_VERS" version="2.0">
<header><CREATION_DATE/><ORIGINATOR/></header><body><segment><metadata><OBJECT_NAME>KUIPER-00148</OBJECT_NAME><OBJECT_ID>2025-217H</OBJECT_ID><CENTER_NAME>EARTH</CENTER_NAME><REF_FRAME>TEME</REF_FRAME><TIME_SYSTEM>UTC</TIME_SYSTEM><MEAN_ELEMENT_THEORY>SGP4</MEAN_ELEMENT_THEORY></metadata><data><meanElements><EPOCH>2025-11-26T04:00:03.000096</EPOCH><MEAN_MOTION>15.27112217</MEAN_MOTION><ECCENTRICITY>.0008176</ECCENTRICITY><INCLINATION>51.8638</INCLINATION><RA_OF_ASC_NODE>145.6316</RA_OF_ASC_NODE><ARG_OF_PERICENTER>333.3481</ARG_OF_PERICENTER><MEAN_ANOMALY>260.9751</MEAN_ANOMALY></meanElements><tleParameters><EPHEMERIS_TYPE>0</EPHEMERIS_TYPE><CLASSIFICATION_TYPE>U</CLASSIFICATION_TYPE><NORAD_CAT_ID>65769</NORAD_CAT_ID><ELEMENT_SET_NO>999</ELEMENT_SET_NO><REV_AT_EPOCH>588</REV_AT_EPOCH><BSTAR>-.33902E-1</BSTAR><MEAN_MOTION_DOT>-.844638E-2</MEAN_MOTION_DOT><MEAN_MOTION_DDOT>0</MEAN_MOTION_DDOT></tleParameters></data></segment></body></omm>
<omm id="CCSDS_OMM_VERS" version="2.0">
<header><CREATION_DATE/><ORIGINATOR/></header><body><segment><metadata><OBJECT_NAME>KUIPER-00150</OBJECT_NAME><OBJECT_ID>2025-217J</OBJECT_ID><CENTER_NAME>EARTH</CENTER_NAME><REF_FRAME>TEME</REF_FRAME><TIME_SYSTEM>UTC</TIME_SYSTEM><MEAN_ELEMENT_THEORY>SGP4</MEAN_ELEMENT_THEORY></metadata><data><meanElements><EPOCH>2025-11-26T04:00:03.000096</EPOCH><MEAN_MOTION>14.98689882</MEAN_MOTION><ECCENTRICITY>.0008676</ECCENTRICITY><INCLINATION>51.8841</INCLINATION><RA_OF_ASC_NODE>149.2828</RA_OF_ASC_NODE><ARG_OF_PERICENTER>318.9686</ARG_OF_PERICENTER><MEAN_ANOMALY>216.4728</MEAN_ANOMALY></meanElements><tleParameters><EPHEMERIS_TYPE>0</EPHEMERIS_TYPE><CLASSIFICATION_TYPE>U</CLASSIFICATION_TYPE><NORAD_CAT_ID>65770</NORAD_CAT_ID><ELEMENT_SET_NO>999</ELEMENT_SET_NO><REV_AT_EPOCH>392</REV_AT_EPOCH><BSTAR>-.87741E-1</BSTAR><MEAN_MOTION_DOT>-.992505E-2</MEAN_MOTION_DOT><MEAN_MOTION_DDOT>0</MEAN_MOTION_DDOT></tleParameters></data></segment></body></omm>
<omm id="CCSDS_OMM_VERS" version="2.0">
<header><CREATION_DATE/><ORIGINATOR/></header><body><segment><metadata><OBJECT_NAME>KUIPER-00151</OBJECT_NAME><OBJECT_ID>2025-217K</OBJECT_ID><CENTER_NAME>EARTH</CENTER_NAME><REF_FRAME>TEME</REF_FRAME><TIME_SYSTEM>UTC</TIME_SYSTEM><MEAN_ELEMENT_THEORY>SGP4</MEAN_ELEMENT_THEORY></metadata><data><meanElements><EPOCH>2025-11-26T04:00:03.000096</EPOCH><MEAN_MOTION>15.20847641</MEAN_MOTION><ECCENTRICITY>.0003755</ECCENTRICITY><INCLINATION>51.8739</INCLINATION><RA_OF_ASC_NODE>145.7865</RA_OF_ASC_NODE><ARG_OF_PERICENTER>286.6807</ARG_OF_PERICENTER><MEAN_ANOMALY>263.7923</MEAN_ANOMALY></meanElements><tleParameters><EPHEMERIS_TYPE>0</EPHEMERIS_TYPE><CLASSIFICATION_TYPE>U</CLASSIFICATION_TYPE><NORAD_CAT_ID>65771</NORAD_CAT_ID><ELEMENT_SET_NO>999</ELEMENT_SET_NO><REV_AT_EPOCH>502</REV_AT_EPOCH><BSTAR>-.51169E-1</BSTAR><MEAN_MOTION_DOT>-.1049842E-1</MEAN_MOTION_DOT><MEAN_MOTION_DDOT>0</MEAN_MOTION_DDOT></tleParameters></data></segment></body></omm>

</ndm>
